{
  "type": "FeatureCollection",
  "features": [
    {
      "type": "Feature",
      "properties": {
        "norad_id": 31307,
        "name": "GALAXY 17 (G-17)",
        "group": "intelsat",
        "lat": -2.5053107902302645,
        "lon": -3.116242249604943,
        "alt_km": 35792.50045963408,
        "timestamp": "2025-12-18T23:35:48.714915+00:00",
        "meta_object_name": "GALAXY 17 (G-17)",
        "meta_object_id": "2007-016B",
        "meta_epoch": "2025-12-18T14:36:11.660256",
        "meta_mean_motion": 1.00272348,
        "meta_eccentricity": 0.00054754,
        "meta_inclination": 2.5142,
        "meta_ra_of_asc_node": 82.2207,
        "meta_arg_of_pericenter": 168.9262,
        "meta_mean_anomaly": 330.4038,
        "meta_ephemeris_type": 0,
        "meta_classification_type": "U",
        "meta_norad_cat_id": 31307,
        "meta_element_set_no": 999,
        "meta_rev_at_epoch": 6799,
        "meta_bstar": 0,
        "meta_mean_motion_dot": -1.84e-06,
        "meta_mean_motion_ddot": 0,
        "tle_line1": "1 31307U 07016B   25352.60846829 -.00000184  00000+0  00000+0 0  9990",
        "tle_line2": "2 31307   2.5142  82.2207 0005475 168.9262 330.4038  1.00272348 67995"
      },
      "geometry": {
        "type": "Point",
        "coordinates": [
          -3.116242249604943,
          -2.5053107902302645
        ]
      }
    },
    {
      "type": "Feature",
      "properties": {
        "norad_id": 31862,
        "name": "DIRECTV 10",
        "group": "intelsat",
        "lat": 0.00163128158876867,
        "lon": -21.019894360546893,
        "alt_km": 35785.91491300228,
        "timestamp": "2025-12-18T23:35:48.714927+00:00",
        "meta_object_name": "DIRECTV 10",
        "meta_object_id": "2007-032A",
        "meta_epoch": "2025-12-18T08:57:38.287584",
        "meta_mean_motion": 1.00272637,
        "meta_eccentricity": 2.082e-05,
        "meta_inclination": 0.0185,
        "meta_ra_of_asc_node": 173.1576,
        "meta_arg_of_pericenter": 71.439,
        "meta_mean_anomaly": 234.2459,
        "meta_ephemeris_type": 0,
        "meta_classification_type": "U",
        "meta_norad_cat_id": 31862,
        "meta_element_set_no": 999,
        "meta_rev_at_epoch": 4378,
        "meta_bstar": 0,
        "meta_mean_motion_dot": -7.8e-07,
        "meta_mean_motion_ddot": 0,
        "tle_line1": "1 31862U 07032A   25352.37335981 -.00000078  00000+0  00000+0 0  9992",
        "tle_line2": "2 31862   0.0185 173.1576 0000208  71.4390 234.2459  1.00272637 43789"
      },
      "geometry": {
        "type": "Point",
        "coordinates": [
          -21.019894360546893,
          0.00163128158876867
        ]
      }
    },
    {
      "type": "Feature",
      "properties": {
        "norad_id": 32253,
        "name": "INTELSAT 11 (IS-11)",
        "group": "intelsat",
        "lat": -1.04136269713561,
        "lon": -79.97645528809788,
        "alt_km": 36100.36219788985,
        "timestamp": "2025-12-18T23:35:48.714938+00:00",
        "meta_object_name": "INTELSAT 11 (IS-11)",
        "meta_object_id": "2007-044B",
        "meta_epoch": "2025-12-18T14:14:43.715328",
        "meta_mean_motion": 0.99051433,
        "meta_eccentricity": 0.00085662,
        "meta_inclination": 3.0947,
        "meta_ra_of_asc_node": 80.9124,
        "meta_arg_of_pericenter": 168.1752,
        "meta_mean_anomaly": 251.9743,
        "meta_ephemeris_type": 0,
        "meta_classification_type": "U",
        "meta_norad_cat_id": 32253,
        "meta_element_set_no": 999,
        "meta_rev_at_epoch": 6666,
        "meta_bstar": 0,
        "meta_mean_motion_dot": -1e-07,
        "meta_mean_motion_ddot": 0,
        "tle_line1": "1 32253U 07044B   25352.59356152 -.00000010  00000+0  00000+0 0  9993",
        "tle_line2": "2 32253   3.0947  80.9124 0008566 168.1752 251.9743  0.99051433 66668"
      },
      "geometry": {
        "type": "Point",
        "coordinates": [
          -79.97645528809788,
          -1.04136269713561
        ]
      }
    },
    {
      "type": "Feature",
      "properties": {
        "norad_id": 32388,
        "name": "HORIZONS-2",
        "group": "intelsat",
        "lat": -2.0555025751999483,
        "lon": 8.062229100269818,
        "alt_km": 35787.22065971185,
        "timestamp": "2025-12-18T23:35:48.714950+00:00",
        "meta_object_name": "HORIZONS-2",
        "meta_object_id": "2007-063B",
        "meta_epoch": "2025-12-18T12:18:18.569952",
        "meta_mean_motion": 1.00272474,
        "meta_eccentricity": 0.00045679,
        "meta_inclination": 2.1359,
        "meta_ra_of_asc_node": 82.9003,
        "meta_arg_of_pericenter": 192.218,
        "meta_mean_anomaly": 283.0484,
        "meta_ephemeris_type": 0,
        "meta_classification_type": "U",
        "meta_norad_cat_id": 32388,
        "meta_element_set_no": 999,
        "meta_rev_at_epoch": 6600,
        "meta_bstar": 0,
        "meta_mean_motion_dot": -2.3e-06,
        "meta_mean_motion_ddot": 0,
        "tle_line1": "1 32388U 07063B   25352.51271493 -.00000230  00000+0  00000+0 0  9993",
        "tle_line2": "2 32388   2.1359  82.9003 0004567 192.2180 283.0484  1.00272474 66001"
      },
      "geometry": {
        "type": "Point",
        "coordinates": [
          8.062229100269818,
          -2.0555025751999483
        ]
      }
    },
    {
      "type": "Feature",
      "properties": {
        "norad_id": 32729,
        "name": "DIRECTV 11",
        "group": "intelsat",
        "lat": 0.002874964874423234,
        "lon": -17.396153280560814,
        "alt_km": 35787.43886141525,
        "timestamp": "2025-12-18T23:35:48.714962+00:00",
        "meta_object_name": "DIRECTV 11",
        "meta_object_id": "2008-013A",
        "meta_epoch": "2025-12-18T13:03:00.501120",
        "meta_mean_motion": 1.0027399,
        "meta_eccentricity": 4.946e-05,
        "meta_inclination": 0.0311,
        "meta_ra_of_asc_node": 213.2373,
        "meta_arg_of_pericenter": 327.9303,
        "meta_mean_anomaly": 2.8082,
        "meta_ephemeris_type": 0,
        "meta_classification_type": "U",
        "meta_norad_cat_id": 32729,
        "meta_element_set_no": 999,
        "meta_rev_at_epoch": 4378,
        "meta_bstar": 0,
        "meta_mean_motion_dot": -1.01e-06,
        "meta_mean_motion_ddot": 0,
        "tle_line1": "1 32729U 08013A   25352.54375580 -.00000101  00000+0  00000+0 0  9990",
        "tle_line2": "2 32729   0.0311 213.2373 0000494 327.9303   2.8082  1.00273990 43788"
      },
      "geometry": {
        "type": "Point",
        "coordinates": [
          -17.396153280560814,
          0.002874964874423234
        ]
      }
    },
    {
      "type": "Feature",
      "properties": {
        "norad_id": 32951,
        "name": "GALAXY 18 (G-18)",
        "group": "intelsat",
        "lat": -0.031006081496414057,
        "lon": -41.20111287074054,
        "alt_km": 35778.24450061016,
        "timestamp": "2025-12-18T23:35:48.714989+00:00",
        "meta_object_name": "GALAXY 18 (G-18)",
        "meta_object_id": "2008-024A",
        "meta_epoch": "2025-12-18T14:25:20.199072",
        "meta_mean_motion": 1.00270842,
        "meta_eccentricity": 0.00028221,
        "meta_inclination": 0.0173,
        "meta_ra_of_asc_node": 21.6314,
        "meta_arg_of_pericenter": 249.7503,
        "meta_mean_anomaly": 269.4101,
        "meta_ephemeris_type": 0,
        "meta_classification_type": "U",
        "meta_norad_cat_id": 32951,
        "meta_element_set_no": 999,
        "meta_rev_at_epoch": 4404,
        "meta_bstar": 0,
        "meta_mean_motion_dot": 5e-07,
        "meta_mean_motion_ddot": 0,
        "tle_line1": "1 32951U 08024A   25352.60092823  .00000050  00000+0  00000+0 0  9994",
        "tle_line2": "2 32951   0.0173  21.6314 0002822 249.7503 269.4101  1.00270842 44043"
      },
      "geometry": {
        "type": "Point",
        "coordinates": [
          -41.20111287074054,
          -0.031006081496414057
        ]
      }
    },
    {
      "type": "Feature",
      "properties": {
        "norad_id": 33153,
        "name": "INTELSAT 25 (IS-25)",
        "group": "intelsat",
        "lat": -1.1742470737982922,
        "lon": 50.332303240135545,
        "alt_km": 35802.632499306535,
        "timestamp": "2025-12-18T23:35:48.715001+00:00",
        "meta_object_name": "INTELSAT 25 (IS-25)",
        "meta_object_id": "2008-034A",
        "meta_epoch": "2025-12-18T11:25:59.877408",
        "meta_mean_motion": 1.00270664,
        "meta_eccentricity": 0.00047951,
        "meta_inclination": 2.2417,
        "meta_ra_of_asc_node": 82.5886,
        "meta_arg_of_pericenter": 185.6311,
        "meta_mean_anomaly": 319.1164,
        "meta_ephemeris_type": 0,
        "meta_classification_type": "U",
        "meta_norad_cat_id": 33153,
        "meta_element_set_no": 999,
        "meta_rev_at_epoch": 6388,
        "meta_bstar": 0,
        "meta_mean_motion_dot": -2.01e-06,
        "meta_mean_motion_ddot": 0,
        "tle_line1": "1 33153U 08034A   25352.47638747 -.00000201  00000+0  00000+0 0  9995",
        "tle_line2": "2 33153   2.2417  82.5886 0004795 185.6311 319.1164  1.00270664 63886"
      },
      "geometry": {
        "type": "Point",
        "coordinates": [
          50.332303240135545,
          -1.1742470737982922
        ]
      }
    }
  ]
}